ELEKTRO-L 3             
1 44903U 19095A   26204.12837047 -.00000092  00000+0  00000+0 0  9990
2 44903   0.3472  82.4065 0001619  19.3674 321.2870  1.00271862 24062
SHIJIAN-20 (SJ-20)      
1 44910U 19097A   26201.84103699  .00000132  00000+0  00000+0 0  9999
2 44910   5.0023  74.6500 0015580  57.9055 153.5938  1.00272475 24033
TJS-5                   
1 44978U 20002A   26201.63128227 -.00000343  00000+0  00000+0 0  9997
2 44978   0.0784  79.4557 0008137 337.0777 216.6301  1.00271413 24041
GSAT-30                 
1 45026U 20005A   26204.10322530 -.00000161  00000+0  00000+0 0  9991
2 45026   0.0153 297.7349 0003391 154.8468 328.4349  1.00272771 23860
EUTELSAT KONNECT        
1 45027U 20005B   26204.11476374  .00000055  00000+0  00000+0 0  9990
2 45027   0.0665  96.3359 0001843 116.2133 136.8228  1.00279086 24699
JCSAT-17                
1 45245U 20013A   26204.28283589 -.00000308  00000+0  00000+0 0  9995
2 45245   5.3923 357.2077 0003406 133.0585  48.5915  1.00272132 23592
GEO-KOMPSAT-2B          
1 45246U 20013B   26204.28127588 -.00000339  00000+0  00000+0 0  9996
2 45246   0.0509 247.6604 0000410 283.8558 359.0124  1.00271077 23644
BEIDOU-3 G2             
1 45344U 20017A   26204.12915047 -.00000138  00000+0  00000+0 0  9994
2 45344   2.9357  47.8504 0002118  58.0884 321.4538  1.00272726 23627
AEHF-6 (USA 298)        
1 45465U 20022B   26204.28309589 -.00000291  00000+0  00000+0 0  9999
2 45465   2.4710 301.6324 0041651  15.5008 223.5185  1.00269031 23378
BEIDOU-3 G3             
1 45807U 20040A   26204.27780920 -.00000351  00000+0  00000+0 0  9997
2 45807   2.5339  67.5033 0002293 317.4864 126.5873  1.00273122 22432
APSTAR-6D               
1 45863U 20045A   26204.15403424 -.00000314  00000+0  00000+0 0  9991
2 45863   0.0429  93.4007 0002808 354.7242  42.2345  1.00268355 22229
KOREASAT 116            
1 45920U 20048A   26204.27893588 -.00000357  00000+0  00000+0 0  9992
2 45920   0.0058  15.3275 0001128 107.0922  35.2035  1.00272906 22000
EXPRESS 103             
1 45985U 20053A   26203.02475324 -.00000278  00000+0  00000+0 0  9997
2 45985   0.0379 262.7514 0000432 126.5116  15.9174  1.00272293 21994
EXPRESS 80              
1 45986U 20053B   26202.94528028 -.00000138  00000+0  00000+0 0  9993
2 45986   0.0130 331.3830 0000376 104.5049 284.1034  1.00293726 21979
BSAT-4B                 
1 46112U 20056A   26204.27754920 -.00000345  00000+0  00000+0 0  9998
2 46112   0.0437 211.1716 0004573 278.6201  20.9646  1.00272311 21753
MEV-2                   
1 46113U 20056B   26204.04185667 -.00000007  00000+0  00000+0 0  9995
2 46113   0.0588 253.9699 0000211 257.9608 162.9160  1.00272395 81072
GALAXY 30 (G-30)        
1 46114U 20056C   26204.27708715  .00000042  00000+0  00000+0 0  9994
2 46114   0.0140  70.3799 0002268  48.6314 156.7393  1.00271616 21654
GAOFEN-13 01            
1 46610U 20071A   26204.08100338 -.00000359  00000+0  00000+0 0  9990
2 46610   0.4881  86.0471 0044426 119.8295 242.3527  1.00274519 21288
TIANTONG-1 2            
1 46916U 20082A   26202.85495772 -.00000353  00000+0  00000+0 0  9997
2 46916   0.7507 332.8108 0001426 135.8095 263.7115  1.00270997 21009
LUCAS (JDRS-1)          
1 47202U 20089A   26204.13131715 -.00000231  00000+0  00000+0 0  9995
2 47202   0.0580 267.4458 0002066 192.6563 338.8364  1.00272524 20776
SXM-7                   
1 47240U 20096A   26204.02513833 -.00000201  00000+0  00000+0 0  9995
2 47240   0.0257 101.0036 0003797  15.4311 108.2161  1.00270895  7801
CMS-01                  
1 47256U 20099A   26204.10322530 -.00000161  00000+0  00000+0 0  9991
2 47256   0.0149  77.7533 0003361 189.7242 153.5290  1.00272776 20557
TURKSAT 5A              
1 47306U 21001A   26203.89051778  .00000158  00000+0  00000+0 0  9994
2 47306   0.0181  77.6342 0000180   2.0103 212.4832  1.00272545 20321
TIANTONG-1 3            
1 47321U 21003A   26203.77302525 -.00000148  00000+0  00000+0 0  9999
2 47321   1.7303 341.5476 0003346 143.1913 175.5529  1.00270111 20314
TJS-6                   
1 47613U 21010A   26204.07730351  .00000048  00000+0  00000+0 0  9995
2 47613   0.1589 261.0347 0003311 236.6855   9.4594  1.00275616 20160
SBIRS GEO-5 (USA 315)   
1 48618U 21042A   26203.91799696 -.00000259  00000+0  00000+0 0  9990
2 48618   5.0593 329.3934 0001773 152.3644 243.1789  1.00272070 19134
FENGYUN 4B              
1 48808U 21047A   26202.85088436 -.00000328  00000+0  00000+0 0  9998
2 48808   0.2367  80.3227 0006851 274.4575 355.7780  1.00276904 18917
SXM-8                   
1 48838U 21049A   26204.14553584 -.00000201  00000+0  00000+0 0  9998
2 48838   0.0180  52.8227 0005892 342.2724 233.0285  1.00271216 18941
TIANLIAN 1-05           
1 49011U 21063A   26204.25917579  .00000111  00000+0  00000+0 0  9997
2 49011   1.6841  80.3966 0001332  83.4090 247.3032  1.00270496 18438
STAR ONE D2             
1 49055U 21069A   26204.14963312  .00000000  00000+0  00000+0 0  9992
2 49055   0.0074  37.1065 0002468 104.1950 143.3884  1.00269682 18305
EUTELSAT QUANTUM        
1 49056U 21069B   26203.83765052  .00000130  00000+0  00000+0 0  9993
2 49056   0.0364 286.5781 0002240 186.2486 177.0198  1.00274235 18285
ZHONGXING-2E            
1 49062U 21071A   26204.13270383 -.00000287  00000+0  00000+0 0  9999
2 49062   0.0111 222.3667 0001347 277.1188 307.2316  1.00271397 18396
