OBJECT_NAME,OBJECT_ID,EPOCH,MEAN_MOTION,ECCENTRICITY,INCLINATION,RA_OF_ASC_NODE,ARG_OF_PERICENTER,MEAN_ANOMALY,EPHEMERIS_TYPE,CLASSIFICATION_TYPE,NORAD_CAT_ID,ELEMENT_SET_NO,REV_AT_EPOCH,BSTAR,MEAN_MOTION_DOT,MEAN_MOTION_DDOT
ELEKTRO-L 3,2019-095A,2026-07-23T03:04:51.208608,1.00271862,.00016193,0.3472,82.4065,19.3674,321.2870,0,U,44903,999,2406,0,-.92E-6,0
SHIJIAN-20 (SJ-20),2019-097A,2026-07-20T20:11:05.595936,1.00272475,.001558,5.0023,74.6500,57.9055,153.5938,0,U,44910,999,2403,0,.132E-5,0
TJS-5,2020-002A,2026-07-20T15:09:02.788128,1.00271413,.0008137,0.0784,79.4557,337.0777,216.6301,0,U,44978,999,2404,0,-.343E-5,0
GSAT-30,2020-005A,2026-07-23T02:28:38.665920,1.00272771,.00033918,0.0153,297.7349,154.8468,328.4349,0,U,45026,999,2386,0,-.161E-5,0
EUTELSAT KONNECT,2020-005B,2026-07-23T02:45:15.587136,1.00279086,.00018433,0.0665,96.3359,116.2133,136.8228,0,U,45027,999,2469,0,.55E-6,0
JCSAT-17,2020-013A,2026-07-23T06:47:17.020896,1.00272132,.00034064,5.3923,357.2077,133.0585,48.5915,0,U,45245,999,2359,0,-.308E-5,0
GEO-KOMPSAT-2B,2020-013B,2026-07-23T06:45:02.236032,1.00271077,.00004107,0.0509,247.6604,283.8558,359.0124,0,U,45246,999,2364,0,-.339E-5,0
BEIDOU-3 G2,2020-017A,2026-07-23T03:05:58.600608,1.00272726,.00021182,2.9357,47.8504,58.0884,321.4538,0,U,45344,999,2362,0,-.138E-5,0
AEHF-6 (USA 298),2020-022B,2026-07-23T06:47:39.484896,1.00269031,.00416516,2.4710,301.6324,15.5008,223.5185,0,U,45465,999,2337,0,-.291E-5,0
BEIDOU-3 G3,2020-040A,2026-07-23T06:40:02.714880,1.00273122,.00022932,2.5339,67.5033,317.4864,126.5873,0,U,45807,999,2243,0,-.351E-5,0
APSTAR-6D,2020-045A,2026-07-23T03:41:48.558336,1.00268355,.00028086,0.0429,93.4007,354.7242,42.2345,0,U,45863,999,2222,0,-.314E-5,0
KOREASAT 116,2020-048A,2026-07-23T06:41:40.060032,1.00272906,.00011286,0.0058,15.3275,107.0922,35.2035,0,U,45920,999,2200,0,-.357E-5,0
EXPRESS 103,2020-053A,2026-07-22T00:35:38.679936,1.00272293,.00004322,0.0379,262.7514,126.5116,15.9174,0,U,45985,999,2199,0,-.278E-5,0
EXPRESS 80,2020-053B,2026-07-21T22:41:12.216192,1.00293726,.00003762,0.0130,331.3830,104.5049,284.1034,0,U,45986,999,2197,0,-.138E-5,0
BSAT-4B,2020-056A,2026-07-23T06:39:40.250880,1.00272311,.0004573,0.0437,211.1716,278.6201,20.9646,0,U,46112,999,2175,0,-.345E-5,0
MEV-2,2020-056B,2026-07-23T01:00:16.416288,1.00272395,.00002119,0.0588,253.9699,257.9608,162.9160,0,U,46113,999,8107,0,-.7E-7,0
GALAXY 30 (G-30),2020-056C,2026-07-23T06:39:00.329760,1.00271616,.00022684,0.0140,70.3799,48.6314,156.7393,0,U,46114,999,2165,0,.42E-6,0
GAOFEN-13 01,2020-071A,2026-07-23T01:56:38.692032,1.00274519,.00444265,0.4881,86.0471,119.8295,242.3527,0,U,46610,999,2128,0,-.359E-5,0
TIANTONG-1 2,2020-082A,2026-07-21T20:31:08.347008,1.00270997,.00014267,0.7507,332.8108,135.8095,263.7115,0,U,46916,999,2100,0,-.353E-5,0
LUCAS (JDRS-1),2020-089A,2026-07-23T03:09:05.801760,1.00272524,.0002066,0.0580,267.4458,192.6563,338.8364,0,U,47202,999,2077,0,-.231E-5,0
SXM-7,2020-096A,2026-07-23T00:36:11.951712,1.00270895,.00037975,0.0257,101.0036,15.4311,108.2161,0,U,47240,999,780,0,-.201E-5,0
CMS-01,2020-099A,2026-07-23T02:28:38.665920,1.00272776,.00033619,0.0149,77.7533,189.7242,153.5290,0,U,47256,999,2055,0,-.161E-5,0
TURKSAT 5A,2021-001A,2026-07-22T21:22:20.736192,1.00272545,.00001807,0.0181,77.6342,2.0103,212.4832,0,U,47306,999,2032,0,.158E-5,0
TIANTONG-1 3,2021-003A,2026-07-22T18:33:09.381600,1.00270111,.00033469,1.7303,341.5476,143.1913,175.5529,0,U,47321,999,2031,0,-.148E-5,0
TJS-6,2021-010A,2026-07-23T01:51:19.023264,1.00275616,.0003311,0.1589,261.0347,236.6855,9.4594,0,U,47613,999,2016,0,.48E-6,0
SBIRS GEO-5 (USA 315),2021-042A,2026-07-22T22:01:54.937344,1.00272070,.00017739,5.0593,329.3934,152.3644,243.1789,0,U,48618,999,1913,0,-.259E-5,0
FENGYUN 4B,2021-047A,2026-07-21T20:25:16.408704,1.00276904,.00068513,0.2367,80.3227,274.4575,355.7780,0,U,48808,999,1891,0,-.328E-5,0
SXM-8,2021-049A,2026-07-23T03:29:34.296576,1.00271216,.00058928,0.0180,52.8227,342.2724,233.0285,0,U,48838,999,1894,0,-.201E-5,0
TIANLIAN 1-05,2021-063A,2026-07-23T06:13:12.788256,1.00270496,.00013327,1.6841,80.3966,83.4090,247.3032,0,U,49011,999,1843,0,.111E-5,0
STAR ONE D2,2021-069A,2026-07-23T03:35:28.301568,1.00269682,.00024684,0.0074,37.1065,104.1950,143.3884,0,U,49055,999,1830,0,0,0
EUTELSAT QUANTUM,2021-069B,2026-07-22T20:06:13.004928,1.00274235,.00022404,0.0364,286.5781,186.2486,177.0198,0,U,49056,999,1828,0,.13E-5,0
ZHONGXING-2E,2021-071A,2026-07-23T03:11:05.610912,1.00271397,.00013475,0.0111,222.3667,277.1188,307.2316,0,U,49062,999,1839,0,-.287E-5,0
